{"type": "FeatureCollection", "features": [{"type": "Feature", "id": "PROP-001", "properties": {"property_id": "PROP-001", "kind": "service_zone", "side": "SOUTH", "area_m2": 43.31, "source": "FIELD_SURVEY_PLUS_AUTO_GEOMETRY", "verified": false}, "geometry": {"type": "Polygon", "coordinates": [[[76.64181351, 12.29425798], [76.64192451, 12.29423438], [76.64193132, 12.29426536], [76.64182032, 12.29428896], [76.64181351, 12.29425798]]]}}, {"type": "Feature", "id": "PROP-001-anchor", "properties": {"property_id": "PROP-001", "kind": "entrance"}, "geometry": {"type": "Point", "coordinates": [76.6418649, 12.2942563]}}, {"type": "Feature", "id": "PROP-002", "properties": {"property_id": "PROP-002", "kind": "service_zone", "side": "SOUTH", "area_m2": 39.52, "source": "FIELD_SURVEY_PLUS_AUTO_GEOMETRY", "verified": false}, "geometry": {"type": "Polygon", "coordinates": [[[76.64170898, 12.29427988], [76.64181093, 12.29425883], [76.64181751, 12.29428968], [76.64171556, 12.29431072], [76.64170898, 12.29427988]]]}}, {"type": "Feature", "id": "PROP-002-anchor", "properties": {"property_id": "PROP-002", "kind": "entrance"}, "geometry": {"type": "Point", "coordinates": [76.6417633, 12.2942779]}}, {"type": "Feature", "id": "PROP-003", "properties": {"property_id": "PROP-003", "kind": "service_zone", "side": "SOUTH", "area_m2": 32.65, "source": "FIELD_SURVEY_PLUS_AUTO_GEOMETRY", "verified": false}, "geometry": {"type": "Polygon", "coordinates": [[[76.64160404, 12.2942981], [76.64170711, 12.29428261], [76.64171111, 12.29430834], [76.64160803, 12.29432383], [76.64160404, 12.2942981]]]}}, {"type": "Feature", "id": "PROP-003-anchor", "properties": {"property_id": "PROP-003", "kind": "entrance"}, "geometry": {"type": "Point", "coordinates": [76.6416556, 12.2942995]}}, {"type": "Feature", "id": "PROP-004", "properties": {"property_id": "PROP-004", "kind": "service_zone", "side": "SOUTH", "area_m2": 21.18, "source": "FIELD_SURVEY_PLUS_AUTO_GEOMETRY", "verified": false}, "geometry": {"type": "Polygon", "coordinates": [[[76.64153795, 12.29430076], [76.64160224, 12.29430028], [76.64160245, 12.29432766], [76.64153816, 12.29432814], [76.64153795, 12.29430076]]]}}, {"type": "Feature", "id": "PROP-004-anchor", "properties": {"property_id": "PROP-004", "kind": "entrance"}, "geometry": {"type": "Point", "coordinates": [76.6415517, 12.2943097]}}, {"type": "Feature", "id": "PROP-005", "properties": {"property_id": "PROP-005", "kind": "service_zone", "side": "SOUTH", "area_m2": 18.72, "source": "FIELD_SURVEY_PLUS_AUTO_GEOMETRY", "verified": false}, "geometry": {"type": "Polygon", "coordinates": [[[76.641486, 12.29429102], [76.64153539, 12.29429163], [76.64153499, 12.29432313], [76.6414856, 12.29432251], [76.641486, 12.29429102]]]}}, {"type": "Feature", "id": "PROP-005-anchor", "properties": {"property_id": "PROP-005", "kind": "entrance"}, "geometry": {"type": "Point", "coordinates": [76.6415215, 12.2943005]}}, {"type": "Feature", "id": "PROP-006", "properties": {"property_id": "PROP-006", "kind": "service_zone", "side": "SOUTH", "area_m2": 30.61, "source": "FIELD_SURVEY_PLUS_AUTO_GEOMETRY", "verified": false}, "geometry": {"type": "Polygon", "coordinates": [[[76.641411, 12.29430185], [76.64147895, 12.29429716], [76.64148161, 12.29433441], [76.64141366, 12.2943391], [76.641411, 12.29430185]]]}}, {"type": "Feature", "id": "PROP-006-anchor", "properties": {"property_id": "PROP-006", "kind": "entrance"}, "geometry": {"type": "Point", "coordinates": [76.6414474, 12.2943084]}}, {"type": "Feature", "id": "PROP-007", "properties": {"property_id": "PROP-007", "kind": "service_zone", "side": "SOUTH", "area_m2": 30.49, "source": "FIELD_SURVEY_PLUS_AUTO_GEOMETRY", "verified": false}, "geometry": {"type": "Polygon", "coordinates": [[[76.64133328, 12.29430843], [76.64139781, 12.2942955], [76.64140562, 12.2943332], [76.64134109, 12.29434612], [76.64133328, 12.29430843]]]}}, {"type": "Feature", "id": "PROP-007-anchor", "properties": {"property_id": "PROP-007", "kind": "entrance"}, "geometry": {"type": "Point", "coordinates": [76.641365, 12.2943113]}}, {"type": "Feature", "id": "PROP-008", "properties": {"property_id": "PROP-008", "kind": "service_zone", "side": "SOUTH", "area_m2": 26.75, "source": "FIELD_SURVEY_PLUS_AUTO_GEOMETRY", "verified": false}, "geometry": {"type": "Polygon", "coordinates": [[[76.64125854, 12.29433652], [76.64132675, 12.29432371], [76.64133286, 12.29435514], [76.64126465, 12.29436796], [76.64125854, 12.29433652]]]}}, {"type": "Feature", "id": "PROP-008-anchor", "properties": {"property_id": "PROP-008", "kind": "entrance"}, "geometry": {"type": "Point", "coordinates": [76.6412986, 12.2943382]}}, {"type": "Feature", "id": "PROP-009", "properties": {"property_id": "PROP-009", "kind": "service_zone", "side": "SOUTH", "area_m2": 34.11, "source": "FIELD_SURVEY_PLUS_AUTO_GEOMETRY", "verified": false}, "geometry": {"type": "Polygon", "coordinates": [[[76.64116343, 12.29433408], [76.64125138, 12.29432948], [76.64125312, 12.29436161], [76.64116517, 12.29436622], [76.64116343, 12.29433408]]]}}, {"type": "Feature", "id": "PROP-009-anchor", "properties": {"property_id": "PROP-009", "kind": "entrance"}, "geometry": {"type": "Point", "coordinates": [76.641208, 12.2943408]}}, {"type": "Feature", "id": "PROP-010", "properties": {"property_id": "PROP-010", "kind": "service_zone", "side": "SOUTH", "area_m2": 39.72, "source": "FIELD_SURVEY_PLUS_AUTO_GEOMETRY", "verified": false}, "geometry": {"type": "Polygon", "coordinates": [[[76.64105371, 12.29434346], [76.64116052, 12.29433534], [76.64116293, 12.29436606], [76.64105612, 12.29437418], [76.64105371, 12.29434346]]]}}, {"type": "Feature", "id": "PROP-010-anchor", "properties": {"property_id": "PROP-010", "kind": "entrance"}, "geometry": {"type": "Point", "coordinates": [76.6411172, 12.2943477]}}, {"type": "Feature", "id": "PROP-011", "properties": {"property_id": "PROP-011", "kind": "service_zone", "side": "NORTH", "area_m2": 46.82, "source": "FIELD_SURVEY_PLUS_AUTO_GEOMETRY", "verified": false}, "geometry": {"type": "Polygon", "coordinates": [[[76.64103101, 12.29438469], [76.64115664, 12.29437591], [76.64115886, 12.29440673], [76.64103324, 12.29441551], [76.64103101, 12.29438469]]]}}, {"type": "Feature", "id": "PROP-011-anchor", "properties": {"property_id": "PROP-011", "kind": "entrance"}, "geometry": {"type": "Point", "coordinates": [76.6410954, 12.2944021]}}, {"type": "Feature", "id": "PROP-012", "properties": {"property_id": "PROP-012", "kind": "service_zone", "side": "NORTH", "area_m2": 34.3, "source": "FIELD_SURVEY_PLUS_AUTO_GEOMETRY", "verified": false}, "geometry": {"type": "Polygon", "coordinates": [[[76.64133746, 12.29435649], [76.64141399, 12.2943518], [76.64141634, 12.2943889], [76.64133981, 12.29439359], [76.64133746, 12.29435649]]]}}, {"type": "Feature", "id": "PROP-012-anchor", "properties": {"property_id": "PROP-012", "kind": "entrance"}, "geometry": {"type": "Point", "coordinates": [76.6413958, 12.2943811]}}, {"type": "Feature", "id": "PROP-013", "properties": {"property_id": "PROP-013", "kind": "service_zone", "side": "NORTH", "area_m2": 40.99, "source": "FIELD_SURVEY_PLUS_AUTO_GEOMETRY", "verified": false}, "geometry": {"type": "Polygon", "coordinates": [[[76.64141681, 12.29435315], [76.64150099, 12.29434135], [76.64150674, 12.29438101], [76.64142256, 12.29439281], [76.64141681, 12.29435315]]]}}, {"type": "Feature", "id": "PROP-013-anchor", "properties": {"property_id": "PROP-013", "kind": "entrance"}, "geometry": {"type": "Point", "coordinates": [76.6414431, 12.2943808]}}, {"type": "Feature", "id": "PROP-014", "properties": {"property_id": "PROP-014", "kind": "service_zone", "side": "NORTH", "area_m2": 42.5, "source": "FIELD_SURVEY_PLUS_AUTO_GEOMETRY", "verified": false}, "geometry": {"type": "Polygon", "coordinates": [[[76.64151489, 12.29434592], [76.64163324, 12.29432539], [76.64163844, 12.29435433], [76.64152008, 12.29437486], [76.64151489, 12.29434592]]]}}, {"type": "Feature", "id": "PROP-014-anchor", "properties": {"property_id": "PROP-014", "kind": "entrance"}, "geometry": {"type": "Point", "coordinates": [76.6415805, 12.2943552]}}, {"type": "Feature", "id": "PROP-015", "properties": {"property_id": "PROP-015", "kind": "service_zone", "side": "NORTH", "area_m2": 37.49, "source": "FIELD_SURVEY_PLUS_AUTO_GEOMETRY", "verified": false}, "geometry": {"type": "Polygon", "coordinates": [[[76.6416371, 12.29432837], [76.64175601, 12.29431121], [76.64175984, 12.29433685], [76.64164093, 12.29435401], [76.6416371, 12.29432837]]]}}, {"type": "Feature", "id": "PROP-015-anchor", "properties": {"property_id": "PROP-015", "kind": "entrance"}, "geometry": {"type": "Point", "coordinates": [76.6416962, 12.2943369]}}, {"type": "Feature", "id": "PROP-016", "properties": {"property_id": "PROP-016", "kind": "service_zone", "side": "NORTH", "area_m2": 50.59, "source": "FIELD_SURVEY_PLUS_AUTO_GEOMETRY", "verified": false}, "geometry": {"type": "Polygon", "coordinates": [[[76.64176629, 12.29430305], [76.6418911, 12.29428651], [76.64189563, 12.29431959], [76.64177082, 12.29433613], [76.64176629, 12.29430305]]]}}, {"type": "Feature", "id": "PROP-016-anchor", "properties": {"property_id": "PROP-016", "kind": "entrance"}, "geometry": {"type": "Point", "coordinates": [76.641832, 12.2943189]}}]}